#dP2024  6 22  0  0  0.00000000      96 __u+U IGS20 FIT  IAC
## 2319 518400.00000000   900.00000000 60483 0.0000000000000
+   54   G02G03G04G05G06G07G08G09G10G11G12G13G14G15G16G17G18
+        G19G20G21G22G23G24G25G26G27G28G29G30G31G32R01R02R03
+        R04R05R07R08R09R11R12R13R14R15R16R17R18R19R20R21R22
+        R24R25R26  0  0  0  0  0  0  0  0  0  0  0  0  0  0
+          0  0  0  0  0  0  0  0  0  0  0  0  0  0  0  0  0
++         5  5  6  9  7  7  6  6  7  7  5  7  6  8  5  7  7
++         8  5  5  6  6  6  5  5  6  6  5  6  5  7  6  7  8
++         6  6  7  8  6  5  6  6  5  7  6  7  6  7  6  6  7
++         7  7  7  0  0  0  0  0  0  0  0  0  0  0  0  0  0
++         0  0  0  0  0  0  0  0  0  0  0  0  0  0  0  0  0
%c M  cc GPS ccc cccc cccc cccc cccc ccccc ccccc ccccc ccccc
%c cc cc ccc ccc cccc cccc cccc cccc ccccc ccccc ccccc ccccc
%f  0.0000000  0.000000000  0.00000000000  0.000000000000000
%f  0.0000000  0.000000000  0.00000000000  0.000000000000000
%i    0    0    0    0      0      0      0      0         0
%i    0    0    0    0      0      0      0      0         0
/* INFORMATION & ANALYSIS CENTER (IAC)      ULTRA-RAPID DATA
/* S/V CLOCKS ARE ALIGNED TO GNSS TIME                      
/* G:C1WC2W R:C1PC2P E:C1XC5X C:C2IC6I J:C1CC2S             
/* PCV:IGS20_2317 OL/AL:FES2004  NONE     YN ORB:CoN CLK:CoN
*  2024 06 22 22  0  0.00000000
PG02 -14586.173169  20648.539151   8096.808160   -412.745788
PG03 -15417.819350  12465.001148 -17774.248988    425.921623
PG04  -6475.566039  16185.571790 -19982.225983    388.826089
PG05  25676.144114  -5363.492289   4269.919028   -177.254364
PG06   9992.965803  11512.812535 -21673.941733    203.514053
PG07  -3131.336113  23791.454524  11374.855730    -86.156137
PG08 -14312.577899   6095.655352  21448.809295    242.231175
PG09   4799.514822  22882.606977 -12633.564693    245.022677
PG10 -17080.446509 -10891.236754  17557.426431    -48.820913
PG11  17289.415459  -2306.562938 -19991.293194   -690.975630
PG12  18122.895166 -10947.617391 -16285.064287   -516.332208
PG13  16792.936969   3721.550503  20093.564644    659.757392
PG14  13179.544927  13354.619452  18918.016711    431.784252
PG15  13447.722596  -8080.945785  20944.244390    173.088682
PG16 -26754.501332   -167.359601   1287.023075   -256.887366
PG17  12943.244789  23086.446009    -21.406084    690.442853
PG18   3639.106482 -23464.496753  11697.389502   -628.258596
PG19  16745.199764  18646.754145  -9558.346157    500.201456
PG20  25755.858132  -1596.154221  -5873.071562    373.544743
PG21 -16236.044706  16241.424223  12818.492534    113.708945
PG22  19705.274220  10849.402955  14306.403403    -30.697360
PG23  -4552.986589 -14391.612420  21894.818305    256.709264
PG24  14827.577571 -19782.959071   8709.651860   -479.390088
PG25   7379.027480 -15301.191034 -20695.342272    497.692614
PG26 -23472.957755  -5692.152159 -11605.604116    132.524992
PG27 -18725.455678  -6047.331687  17744.200831    -29.104285
PG28  -9329.182712 -13922.951623 -20614.741909   -300.523819
PG29   -321.453304 -21977.677351 -14872.038304   -593.007599
PG30   5715.655930  18396.449033  18322.359418   -369.897512
PG31 -15927.463516  -2469.289488 -21381.481103   -227.244005
PG32 -15736.065432 -21416.905728  -2012.622139   -615.331221
PR01   8999.808873  -6963.554630  22832.034322     89.211783
PR02  -6849.841154 -15927.095958  18782.638548    -23.389084
PR03 -19287.650220 -16268.755491   3984.787497    102.582261
PR04 -20653.841041  -8029.277271 -12614.818104    242.312947
PR05 -11156.825716   4617.504264 -22460.306611    133.507427
PR07  19580.603919  16005.368946  -3094.876062     85.140260
PR08  20674.995484   7539.834701  12931.933726     -5.246306
PR09  -5716.357000  14095.981977  20473.937591    193.709523
PR11  22059.962054  -3773.309842  12271.605610     20.553252
PR12  20726.553213 -13104.372412  -6978.208101     41.628145
PR13   8706.119540 -14307.651531 -19246.907916    -48.590359
PR14 -11402.781924  -6429.426956 -21870.897050     26.635884
PR15 -22654.491451   4593.229863 -10750.516918     78.574575
PR16 -20758.790534  13112.299393   6856.291589     26.734174
PR17  -6284.787527 -17213.899320  17723.842358     98.223761
PR18 -10511.011584   -661.705160  23240.270341    148.339505
PR19 -10417.046333  14659.851384  18086.808878   -281.273374
PR20  -3398.316908  25236.509918  -1125.349324   -114.926756
PR21   5931.055831  17582.429597 -17523.938327   -111.505278
PR22  11050.835399   -380.462696 -22965.276297     99.252904
PR24   1975.130305 -25366.198112   1686.086018    -60.912750
PR25   5948.705081  17294.675009 -17791.427785    -77.049980
PR26  21081.697425   8371.667870  11714.547388     -5.721559
*  2024 06 22 22 15  0.00000000
PG02 -14438.106508  19611.331243  10703.641246   -412.739448
PG03 -17319.067645  12485.885755 -15881.001009    425.937445
PG04  -7814.767620  14255.013100 -20961.274973    388.833321
PG05  26045.435394  -5192.290590   1421.330678   -177.256330
PG06   8865.345540  13680.187950 -20883.413921    203.494527
PG07  -3855.012692  24671.612490   8845.465601    -86.147920
PG08 -15743.452210   4110.773411  20952.918127    242.247060
PG09   3716.790741  21738.339273 -14845.135873    245.035926
PG10 -15045.545651 -11134.855022  19181.095221    -48.828652
PG11  16257.233658   -195.856145 -20969.433424   -690.982548
PG12  19827.816091 -10790.771938 -14234.734309   -516.335165
PG13  17714.694358   5784.243792  18806.665139    659.759603
PG14  10965.312925  13593.736058  20105.938239    431.792434
PG15  15112.073302  -6240.969319  20461.515476    173.092250
PG16 -26774.241588   -385.839341  -1544.842665   -256.877816
PG17  12674.168570  23111.993878   2854.189401    690.437312
PG18   4355.287624 -24443.802167   9152.047274   -628.262732
PG19  17017.894972  19535.270222  -6920.004842    500.206335
PG20  25014.310347  -1121.632273  -8560.566569    373.544234
PG21 -15927.969268  14684.313002  15059.079305    113.707091
PG22  18005.042707  11019.593233  16357.360500    -30.701718
PG23  -2063.656977 -14664.891109  22071.375996    256.717484
PG24  14728.370795 -18531.002500  11199.642680   -479.392126
PG25   9629.364365 -15408.671741 -19623.378652    497.693036
PG26 -22102.652506  -6162.717721 -13834.926318    132.519217
PG27 -19736.355829  -7737.705669  15967.953095    -29.105319
PG28  -8322.396446 -15986.925753 -19518.925056   -300.538635
PG29    729.482901 -20495.918004 -16858.872189   -593.005644
PG30   4678.903145  20112.073955  16706.223869   -369.891810
PG31 -14858.534240  -4641.547582 -21755.533033   -227.243851
PG32 -15594.924614 -21626.566019    833.578354   -615.329945
PR01  11360.780268  -5502.724694  22169.894824     89.212974
PR02  -4918.634446 -14478.993654  20481.540845    -23.388674
PR03 -18817.397227 -15754.739890   7106.296429    102.582399
PR04 -21885.861246  -8687.619977  -9793.328970    242.314403
PR05 -13418.979163   3116.342423 -21461.134727    133.507826
PR07  19185.677212  15548.663194  -6250.771239     85.141189
PR08  21926.685149   8216.318608  10141.881353     -5.246483
PR09  -7837.778121  15267.208009  18859.669028    193.711792
PR11  20513.489508  -3128.632422  14862.861056     20.552066
PR12  21273.177675 -13517.086820  -3863.601594     41.628456
PR13  10678.772816 -15400.293854 -17312.340930    -48.589912
PR14  -8938.072820  -7645.391499 -22614.501036     26.636419
PR15 -21263.407011   4026.096198 -13469.991585     78.574416
PR16 -21276.090266  13534.963702   3725.258878     26.734019
PR17  -6258.951189 -19269.342729  15470.865811     98.226745
PR18 -10270.192325  -3511.763960  23095.211488    148.341316
PR19 -10012.642980  12339.494282  19949.696540   -281.275004
PR20  -3173.960977  25201.887788   2122.277732   -114.929592
PR21   5904.115843  19608.917483 -15234.760713   -111.507754
PR22  10727.915035   2442.383811 -22990.831181     99.248508
PR24   1824.341885 -25386.090951  -1529.985721    -60.913944
PR25   5813.490247  19351.560563 -15582.731589    -77.077501
PR26  22216.285580   8949.549661   8832.821397     -5.720882
EOF
